SWARM A                 
1 39452U 13067B   26177.89746889  .00010461  00000+0  17872-3 0  9991
2 39452  87.3322  52.6336 0003145  97.3504 262.8115 15.51132093707757
SWARM C                 
1 39453U 13067C   26177.89736486  .00010699  00000+0  18281-3 0  9992
2 39453  87.3321  51.2147 0003140  97.5766 262.5852 15.51131320707712
BRITE-CA1 (TORONTO)     
1 40020U 14033L   26177.88972236  .00000844  00000+0  13452-3 0  9998
2 40020  97.9749 306.6393 0077345 245.4033 113.9102 14.72690941643643
OCO 2                   
1 40059U 14035A   26177.90653747  .00000378  00000+0  93965-4 0  9998
2 40059  98.2019 119.0515 0001506  83.5827 276.5543 14.57118653637465
BRITE-PL2 (HEWELIUSZ)   
1 40119U 14049B   26177.87987069  .00001747  00000+0  16647-3 0  9995
2 40119  97.9107 289.9549 0015360  78.9285 281.3661 14.94629153642890
MMS 1                   
1 40482U 15011A   26178.00003472 -.00000848  00000+0  00000+0 0  9995
2 40482  72.2659 348.6978 8318444 167.6017 219.6776  0.28358659  1371
MMS 2                   
1 40483U 15011B   26178.00003472 -.00000848  00000+0  00000+0 0  9996
2 40483  72.2697 348.6969 8321253 167.6050 219.6682  0.28358620  1377
MMS 3                   
1 40484U 15011C   26178.00003472 -.00000847  00000+0  00000+0 0  9996
2 40484  72.2696 348.7087 8319623 167.6125 219.6421  0.28358619  1379
MMS 4                   
1 40485U 15011D   26178.00003472 -.00000848  00000+0  00000+0 0  9998
2 40485  72.2659 348.6919 8319525 167.6222 219.6351  0.28358635  1371
ASTROSAT                
1 40930U 15052A   26177.91335746  .00001538  00000+0  10540-3 0  9999
2 40930   5.9973  85.3306 0007889 177.8458 182.1704 14.82522407581279
DAMPE                   
1 41173U 15078A   26177.97353536  .00001453  00000+0  51309-4 0  9995
2 41173  97.4560 183.4886 0013367  47.0655 313.1705 15.30809873586041
PISAT                   
1 41784U 16059B   26177.95262248  .00000903  00000+0  16112-3 0  9991
2 41784  97.8180 177.9859 0029196 171.3443 188.8272 14.68999168521178
HXMT (HUIYAN)           
1 42758U 17034A   26177.93517043  .00004694  00000+0  23171-3 0  9995
2 42758  43.0133 128.7574 0032106 209.1031 150.8028 15.18539477499145
FLYING LAPTOP           
1 42831U 17042G   26177.98401516  .00004711  00000+0  36995-3 0  9996
2 42831  97.4721 333.1427 0019961  90.2626 270.0886 15.01208360487921
ZHANGHENG 1-01 (CSES-1) 
1 43194U 18015C   26177.94227705  .00008165  00000+0  37070-3 0  9994
2 43194  97.6871 343.7945 0017406 230.1063 129.8643 15.20932703466123
SALSAT                  
1 46495U 20068K   26177.95657953  .00008212  00000+0  28601-3 0  9998
2 46495  97.8848 181.6168 0007822 266.2984  93.7361 15.29932421316851
IXPE                    
1 49954U 21121A   26178.00003472  .00011919  00000+0  64971-3 0  9998
2 49954   0.2298 243.8211 0007195 229.4610 305.6481 15.10338423  5092
SMILE                   
1 69123U 26109A   26158.38327019 -.00000041  00000+0 -36778-3 0  9994
2 69123  69.9787 209.3069 3310191 288.5544  45.7342  7.54049028  2480
